25851,GLOBALSTAR M035,1999,130.37,-1.0,-,52.0,Inactive,0,MEO,USA,Globalstar,Unknown,Unknown,Delta,1 25851U 99037A   23253.59477726 -.00000106  00000+0 -15847-2 0  9996,2 25851  51.9969  54.6708 0014063  19.2416  56.2243 11.04526109 24927,11.04526109,0.0014063,MEO
25852,GLOBALSTAR M032,1999,128.68,-1.0,-,51.99,Inactive,0,MEO,USA,Globalstar,Unknown,Unknown,Delta,1 25852U 99037B   23253.42953715 -.00000120  00000+0 -16940-2 0  9997,2 25852  51.9939 284.8008 0007979 158.0029 202.1114 11.19044444 62491,11.19044444,0.0007979,MEO
25853,GLOBALSTAR M051,1999,126.07,-1.0,-,51.98,Inactive,0,LEO,USA,Globalstar,Unknown,Unknown,Delta,1 25853U 99037C   23253.20777559 -.00000066  00000+0  14880-3 0  9994,2 25853  51.9783 159.2183 0001593 117.8242 242.2730 11.42190972 58571,11.42190972,0.0001593,LEO
25854,GLOBALSTAR M030,1999,124.67,-1.0,-,51.99,Inactive,0,LEO,USA,Globalstar,Unknown,Unknown,Delta,1 25854U 99037D   23253.52989496 -.00000079  00000+0 -93629-4 0  9999,2 25854  51.9915   5.5941 0003773 332.8313  27.2306 11.55089518 75435,11.55089518,0.0003773,LEO
25872,GLOBALSTAR M048,1999,127.0,-1.0,-,51.94,Inactive,0,LEO,USA,Globalstar,Unknown,Unknown,Delta,1 25872U 99041A   23253.62823118 -.00000060  00000+0  26925-3 0  9996,2 25872  51.9374  68.2672 0013648 143.5085 293.3900 11.33839562 51759,11.33839562,0.0013648,LEO
25873,GLOBALSTAR M026,1999,130.1,-1.0,-,52.0,Inactive,0,MEO,USA,Globalstar,Unknown,Unknown,Delta,1 25873U 99041B   23253.08055877  .00000008  00000+0  26519-2 0  9995,2 25873  51.9993 180.5947 0001444 294.4663 193.0301 11.06823461 76949,11.06823461,0.0001444,MEO
25874,GLOBALSTAR M043,1999,127.92,-1.0,-,51.94,Inactive,0,LEO,USA,Globalstar,Unknown,Unknown,Delta,1 25874U 99041C   23253.20030413 -.00000071  00000+0 -75732-4 0  9994,2 25874  51.9392 151.1871 0012962 292.6630 230.8447 11.25673924 50125,11.25673924,0.0012962,LEO
25875,GLOBALSTAR M028,1999,115.15,-1.0,-,51.96,Inactive,0,LEO,USA,Globalstar,Unknown,Unknown,Delta,1 25875U 99041D   23253.35485045 -.00000060  00000+0  26438-3 0  9991,2 25875  51.9638 318.7515 0063998 109.1232 251.6572 12.50539956109377,12.50539956,0.0063998,LEO
